YAM-7                   
1 60504U 24149AN  26068.71799904  .00009009  00000+0  30984-3 0  9997
2 60504  97.3828 149.4631 0001973 296.5121  63.5918 15.30304554 86835
STARLINK-34018          
1 63836U 25093A   26068.44732634  .00034620  00000+0  12626-2 0  9993
2 63836  43.0028  79.3993 0002287 280.0045  80.0548 15.27555100 47932
